NORAD_CAT_ID,OBJECT_NAME,OBJECT_TYPE,EPOCH,MEAN_MOTION,ECCENTRICITY,INCLINATION,RA_OF_ASC_NODE,ARG_OF_PERICENTER,MEAN_ANOMALY,BSTAR,MEAN_MOTION_DOT,MEAN_MOTION_DDOT,TLE_LINE0,TLE_LINE1,TLE_LINE2,SEMIMAJOR_AXIS,PERIOD,APOGEE,PERIGEE,DECAYED
52349.0,STARLINK-3819,PAYLOAD,2022-10-08 11:35:37,15.08836597,0.0002106,53.2176,42.5334,41.3892,318.7259,-7.3777e-05,-1.462e-05,0.0,0 STARLINK-3819,1 52349U 22045U   22281.48307527 -.00001462  00000-0 -73777-4 0  9997,2 52349  53.2176  42.5334 0002106  41.3892 318.7259 15.08836597 27349,6917.891,95.438,541.2130000000002,538.299,0.0
52349.0,STARLINK-3819,PAYLOAD,2022-10-08 13:11:00,15.08836954,0.0002093,53.2179,42.2364,40.885,319.2299,-6.8319e-05,-1.375e-05,0.0,0 STARLINK-3819,1 52349U 22045U   22281.54931630 -.00001375  00000-0 -68319-4 0  9991,2 52349  53.2179  42.2364 0002093  40.8850 319.2299 15.08836954 27353,6917.89,95.438,541.203,538.307,0.0
52349.0,STARLINK-3819,PAYLOAD,2022-10-08 17:57:10,15.08839052,0.0002387999999999,53.2195,41.3476,32.4091,327.7047,-9.9283e-06,-4.46e-06,0.0,0 STARLINK-3819,1 52349U 22045U   22281.74803811 -.00000446  00000-0 -99283-5 0  9995,2 52349  53.2195  41.3476 0002388  32.4091 327.7047 15.08839052 27386,6917.8830000000025,95.438,541.4,538.096,0.0
52349.0,STARLINK-3819,PAYLOAD,2022-10-09 13:01:48,15.08839519,0.0002400999999999,53.2189,37.7789,30.9664,329.147,1.2805e-05,-8.5e-07,0.0,0 STARLINK-3819,1 52349U 22045U   22282.54291933 -.00000085  00000-0  12805-4 0  9992,2 52349  53.2189  37.7789 0002401  30.9664 329.1470 15.08839519 27508,6917.882,95.438,541.408,538.086,0.0
52349.0,STARLINK-3819,PAYLOAD,2022-10-09 17:47:57,15.0884725,0.0002389,53.2189,36.8868,33.5061,326.6082,0.0001658,2.352e-05,0.0,0 STARLINK-3819,1 52349U 22045U   22282.74163476  .00002352  00000-0  16580-3 0  9995,2 52349  53.2189  36.8868 0002389  33.5061 326.6082 15.08847250 27536,6917.858,95.437,541.376,538.071,0.0
52349.0,STARLINK-3819,PAYLOAD,2022-10-10 11:17:11,15.08841942,0.0002367,53.2182,33.6144,31.0999,329.0133,0.00021314,3.106e-05,0.0,0 STARLINK-3819,1 52349U 22045U   22283.47027562  .00003106  00000-0  21314-3 0  9990,2 52349  53.2182  33.6144 0002367  31.0999 329.0133 15.08841942 27648,6917.874,95.437,541.377,538.102,0.0
52349.0,STARLINK-3819,PAYLOAD,2022-10-10 14:27:58,15.08839943,0.0002404,53.2182,33.0196,31.6687,328.4449,0.00016395,2.322e-05,0.0,0 STARLINK-3819,1 52349U 22045U   22283.60275715  .00002322  00000-0  16395-3 0  9992,2 52349  53.2182  33.0196 0002404  31.6687 328.4449 15.08839943 27664,6917.880999999999,95.438,541.409,538.0830000000002,0.0
52349.0,STARLINK-3819,PAYLOAD,2022-10-10 17:38:44,15.08842269,0.000243,53.2181,32.4248,31.9258,328.1881,0.00017103,2.435e-05,0.0,0 STARLINK-3819,1 52349U 22045U   22283.73523595  .00002435  00000-0  17103-3 0  9991,2 52349  53.2181  32.4248 0002430  31.9258 328.1881 15.08842269 27684,6917.873000000001,95.437,541.419,538.057,0.0
52349.0,STARLINK-3819,PAYLOAD,2022-10-11 11:07:59,15.08820098,0.0002577,53.2176,29.1533,23.4877,336.6233,-0.0002872,-4.854e-05,0.0,0 STARLINK-3819,1 52349U 22045U   22284.46388783 -.00004854  00000-0 -28720-3 0  9996,2 52349  53.2176  29.1533 0002577  23.4877 336.6233 15.08820098 27796,6917.941,95.439,541.589,538.023,0.0
52349.0,STARLINK-3819,PAYLOAD,2022-10-11 15:54:09,15.08817816,0.0002467,53.2183,28.2626,28.4976,331.6151,-0.00029357,-4.955e-05,0.0,0 STARLINK-3819,1 52349U 22045U   22284.66261119 -.00004955  00000-0 -29357-3 0  9990,2 52349  53.2183  28.2626 0002467  28.4976 331.6151 15.08817816 27822,6917.948,95.439,541.52,538.107,0.0
52349.0,STARLINK-3819,PAYLOAD,2022-10-12 12:34:10,15.08821708,0.0002508,53.2174,24.3959,27.5665,332.546,3.1426e-06,-2.38e-06,0.0,0 STARLINK-3819,1 52349U 22045U   22285.52373768 -.00000238  00000-0  31426-5 0  9991,2 52349  53.2174  24.3959 0002508  27.5665 332.5460 15.08821708 27951,6917.936,95.439,541.536,538.066,0.0
52349.0,STARLINK-3819,PAYLOAD,2022-10-12 15:44:57,15.08825724,0.0002535,53.2175,23.8012,27.9402,332.1726,0.00011633,1.563e-05,0.0,0 STARLINK-3819,1 52349U 22045U   22285.65621838  .00001563  00000-0  11633-3 0  9996,2 52349  53.2175  23.8012 0002535  27.9402 332.1726 15.08825724 27974,6917.924,95.438,541.543,538.035,0.0
52349.0,STARLINK-3819,PAYLOAD,2022-10-13 06:03:25,15.08840561,0.0002478,53.2173,21.1244,25.605,334.5064,0.00047632,7.301e-05,0.0,0 STARLINK-3819,1 52349U 22045U   22286.25237897  .00007301  00000-0  47632-3 0  9995,2 52349  53.2173  21.1244 0002478  25.6050 334.5064 15.08840561 28068,6917.879,95.438,541.4580000000002,538.029,0.0
52349.0,STARLINK-3819,PAYLOAD,2022-10-13 10:49:34,15.08855361,0.0002614,53.2171,20.2331,27.9584,332.1548,0.00097143,0.00015213,0.0,0 STARLINK-3819,1 52349U 22045U   22286.45109840  .00015213  00000-0  97143-3 0  9996,2 52349  53.2171  20.2331 0002614  27.9584 332.1548 15.08855361 28090,6917.833000000001,95.437,541.507,537.89,0.0
52349.0,STARLINK-3819,PAYLOAD,2022-10-13 18:46:30,15.08861783,0.0002583999999999,53.2176,18.7475,16.8495,343.2582,0.00085457,0.00013347,0.0,0 STARLINK-3819,1 52349U 22045U   22286.78229510  .00013347  00000-0  85457-3 0  9990,2 52349  53.2176  18.7475 0002584  16.8495 343.2582 15.08861783 28142,6917.814,95.436,541.466,537.891,0.0
52349.0,STARLINK-3819,PAYLOAD,2022-10-14 05:54:12,15.08850425,0.0002501,53.2171,16.6649,30.589,329.5248,0.00020573,2.988e-05,0.0,0 STARLINK-3819,1 52349U 22045U   22287.24597421  .00002988  00000-0  20573-3 0  9998,2 52349  53.2171  16.6649 0002501  30.5890 329.5248 15.08850425 28213,6917.849,95.437,541.444,537.9830000000002,0.0
52349.0,STARLINK-3819,PAYLOAD,2022-10-14 12:15:44,15.088432199999998,0.0002577,53.2175,15.4757,26.219,333.8933,0.00016129,2.28e-05,0.0,0 STARLINK-3819,1 52349U 22045U   22287.51093624  .00002280  00000-0  16129-3 0  9991,2 52349  53.2175  15.4757 0002577  26.2190 333.8933 15.08843220 28250,6917.871,95.437,541.518,537.953,0.0
52349.0,STARLINK-3819,PAYLOAD,2022-10-14 17:01:54,15.08845233,0.0002616,53.2176,14.5833,28.8093,331.3043,0.00026307,3.902e-05,0.0,0 STARLINK-3819,1 52349U 22045U   22287.70965551  .00003902  00000-0  26307-3 0  9990,2 52349  53.2176  14.5833 0002616  28.8093 331.3043 15.08845233 28284,6917.864000000001,95.437,541.539,537.92,0.0
52349.0,STARLINK-3819,PAYLOAD,2022-10-15 12:06:30,15.0885739,0.0002743,53.2182,11.0163,23.3884,336.7232,0.00010935,1.453e-05,0.0,0 STARLINK-3819,1 52349U 22045U   22288.50452324  .00001453  00000-0  10935-3 0  9997,2 52349  53.2182  11.0163 0002743  23.3884 336.7232 15.08857390 28408,6917.8269999999975,95.436,541.59,537.795,0.0
52349.0,STARLINK-3819,PAYLOAD,2022-10-15 16:52:40,15.08852755,0.0002738,53.2179,10.1238,23.3125,336.7991,4.1927e-05,3.79e-06,0.0,0 STARLINK-3819,1 52349U 22045U   22288.70324374  .00000379  00000-0  41927-4 0  9994,2 52349  53.2179  10.1238 0002738  23.3125 336.7991 15.08852755 28434,6917.840999999999,95.437,541.601,537.812,0.0
52349.0,STARLINK-3819,PAYLOAD,2022-10-16 11:57:19,15.08831802,0.0002855,53.2186,6.5564,22.7786,337.3332,-0.00015766,-2.796e-05,0.0,0 STARLINK-3819,1 52349U 22045U   22289.49814024 -.00002796  00000-0 -15766-3 0  9995,2 52349  53.2186   6.5564 0002855  22.7786 337.3332 15.08831802 28558,6917.905,95.438,541.746,537.795,0.0
52349.0,STARLINK-3819,PAYLOAD,2022-10-16 15:08:05,15.08832814,0.0002542,53.2189,5.959,26.7754,333.3369,-0.00013457,-2.429e-05,0.0,0 STARLINK-3819,1 52349U 22045U   22289.63061891 -.00002429  00000-0 -13457-3 0  9995,2 52349  53.2189   5.9590 0002542  26.7754 333.3369 15.08832814 28577,6917.901999999999,95.438,541.526,538.009,0.0
52349.0,STARLINK-3819,PAYLOAD,2022-10-17 05:26:33,15.08835962,0.0002508999999999,53.2189,3.2839,25.8614,334.2504,-4.1353e-05,-9.46e-06,0.0,0 STARLINK-3819,1 52349U 22045U   22290.22677571 -.00000946  00000-0 -41353-4 0  9999,2 52349  53.2189   3.2839 0002509  25.8614 334.2504 15.08835962 28660,6917.893,95.438,541.493,538.0219999999998,0.0
52349.0,STARLINK-3819,PAYLOAD,2022-10-17 13:23:28,15.08840374,0.0002652,53.2188,1.7979,27.5194,332.5939,-4.6538e-05,-1.029e-05,0.0,0 STARLINK-3819,1 52349U 22045U   22290.55797354 -.00001029  00000-0 -46538-4 0  9990,2 52349  53.2188   1.7979 0002652  27.5194 332.5939 15.08840374 28710,6917.879,95.438,541.5790000000002,537.91,0.0
52349.0,STARLINK-3819,PAYLOAD,2022-10-17 14:58:51,15.08842927,0.0002693,53.2187,1.5002,23.3999,336.7115,-4.9844e-05,-1.082e-05,0.0,0 STARLINK-3819,1 52349U 22045U   22290.62421188 -.00001082  00000-0 -49844-4 0  9999,2 52349  53.2187   1.5002 0002693  23.3999 336.7115 15.08842927 28725,6917.871,95.437,541.599,537.873,0.0
52349.0,STARLINK-3819,PAYLOAD,2022-10-18 11:38:53,15.08821914,0.0002628,53.2188,357.6336,23.0103,337.1007,4.9209e-05,4.94e-06,0.0,0 STARLINK-3819,1 52349U 22045U   22291.48534713  .00000494  00000-0  49209-4 0  9992,2 52349  53.2188 357.6336 0002628  23.0103 337.1007 15.08821914 28855,6917.936,95.439,541.619,537.9830000000002,0.0
52349.0,STARLINK-3819,PAYLOAD,2022-10-18 21:11:12,15.08826194,0.0002845,53.2194,355.8495,25.5116,334.6016,5.7338e-05,6.24e-06,0.0,0 STARLINK-3819,1 52349U 22045U   22291.88278872  .00000624  00000-0  57338-4 0  9994,2 52349  53.2194 355.8495 0002845  25.5116 334.6016 15.08826194 28914,6917.9230000000025,95.438,541.756,537.819,0.0
52349.0,STARLINK-3819,PAYLOAD,2022-10-19 03:32:45,15.088319,0.0002698,53.2191,354.6597,23.5691,336.5425,8.314700000000001e-05,1.035e-05,0.0,0 STARLINK-3819,1 52349U 22045U   22292.14774548  .00001035  00000-0  83147-4 0  9999,2 52349  53.2191 354.6597 0002698  23.5691 336.5425 15.08831900 28953,6917.905,95.438,541.637,537.904,0.0
52349.0,STARLINK-3819,PAYLOAD,2022-10-19 11:29:40,15.0883416,0.0002761,53.2172,353.1724,18.1974,341.9117,5.0591e-05,5.17e-06,0.0,0 STARLINK-3819,1 52349U 22045U   22292.47894583  .00000517  00000-0  50591-4 0  9998,2 52349  53.2172 353.1724 0002761  18.1974 341.9117 15.08834160 29009,6917.898,95.438,541.673,537.8530000000002,0.0
